{"type": "FeatureCollection", "features": [ {"type": "Feature", "properties": {"norad_id": 33905, "name": "COSMOS 2251 DEB", "group": "cosmos-2251-debris", "lat": -8.158178969351052, "lon": -35.99055647496983, "alt_km": 807.1834855271782, "timestamp": "2025-12-07T11:27:50.399994+00:00", "meta": {"OBJECT_NAME": "COSMOS 2251 DEB", "OBJECT_ID": "1993-036DJ", "EPOCH": "2025-12-06T09:28:01.203168", "MEAN_MOTION": 14.35349319, "ECCENTRICITY": 0.00592728, "INCLINATION": 73.887, "RA_OF_ASC_NODE": 328.3883, "ARG_OF_PERICENTER": 219.1218, "MEAN_ANOMALY": 297.0067, "EPHEMERIS_TYPE": 0, "CLASSIFICATION_TYPE": "U", "NORAD_CAT_ID": 33905, "ELEMENT_SET_NO": 999, "REV_AT_EPOCH": 87596, "BSTAR": 0.0013596896, "MEAN_MOTION_DOT": 3.953e-05, "MEAN_MOTION_DDOT": 0}, "tle": {"line1": "1 33905U 93036DJ  25340.39445837  .00003953  00000+0  13597-2 0  9994", "line2": "2 33905  73.8870 328.3883 0059272 219.1218 297.0067 14.35349319875967"}}, "geometry": {"type": "Point", "coordinates": [-35.99055647496983, -8.158178969351052]}}, {"type": "Feature", "properties": {"norad_id": 33906, "name": "COSMOS 2251 DEB", "group": "cosmos-2251-debris", "lat": -6.285093651761498, "lon": 153.2795731343343, "alt_km": 732.1412178029304, "timestamp": "2025-12-07T11:27:50.400005+00:00", "meta": {"OBJECT_NAME": "COSMOS 2251 DEB", "OBJECT_ID": "1993-036DK", "EPOCH": "2025-12-06T10:37:30.829152", "MEAN_MOTION": 14.56917351, "ECCENTRICITY": 0.00364035, "INCLINATION": 74.0304, "RA_OF_ASC_NODE": 333.4373, "ARG_OF_PERICENTER": 3.9971, "MEAN_ANOMALY": 156.4139, "EPHEMERIS_TYPE": 0, "CLASSIFICATION_TYPE": "U", "NORAD_CAT_ID": 33906, "ELEMENT_SET_NO": 999, "REV_AT_EPOCH": 87916, "BSTAR": 0.0036833941, "MEAN_MOTION_DOT": 0.00016693, "MEAN_MOTION_DDOT": 0}, "tle": {"line1": "1 33906U 93036DK  25340.44271793  .00016693  00000+0  36834-2 0  9993", "line2": "2 33906  74.0304 333.4373 0036403   3.9971 156.4139 14.56917351879164"}}, "geometry": {"type": "Point", "coordinates": [153.2795731343343, -6.285093651761498]}}, {"type": "Feature", "properties": {"norad_id": 33907, "name": "COSMOS 2251 DEB", "group": "cosmos-2251-debris", "lat": -55.531104711769174, "lon": 18.624896945527734, "alt_km": 872.3542816985546, "timestamp": "2025-12-07T11:27:50.400015+00:00", "meta": {"OBJECT_NAME": "COSMOS 2251 DEB", "OBJECT_ID": "1993-036DL", "EPOCH": "2025-12-06T23:07:13.105632", "MEAN_MOTION": 14.30429007, "ECCENTRICITY": 0.01126368, "INCLINATION": 74.0704, "RA_OF_ASC_NODE": 44.1429, "ARG_OF_PERICENTER": 101.3359, "MEAN_ANOMALY": 72.7026, "EPHEMERIS_TYPE": 0, "CLASSIFICATION_TYPE": "U", "NORAD_CAT_ID": 33907, "ELEMENT_SET_NO": 999, "REV_AT_EPOCH": 86497, "BSTAR": 0.002682257, "MEAN_MOTION_DOT": 7.46e-05, "MEAN_MOTION_DDOT": 0}, "tle": {"line1": "1 33907U 93036DL  25340.96334613  .00007460  00000+0  26823-2 0  9991", "line2": "2 33907  74.0704  44.1429 0112636 101.3359  72.7026 14.30429007864979"}}, "geometry": {"type": "Point", "coordinates": [18.624896945527734, -55.531104711769174]}}, {"type": "Feature", "properties": {"norad_id": 33908, "name": "COSMOS 2251 DEB", "group": "cosmos-2251-debris", "lat": 47.21546226636301, "lon": -126.6362918142508, "alt_km": 1023.8370405266678, "timestamp": "2025-12-07T11:27:50.400025+00:00", "meta": {"OBJECT_NAME": "COSMOS 2251 DEB", "OBJECT_ID": "1993-036DM", "EPOCH": "2025-12-06T09:37:41.435328", "MEAN_MOTION": 14.07270417, "ECCENTRICITY": 0.02237099, "INCLINATION": 73.8378, "RA_OF_ASC_NODE": 217.0126, "ARG_OF_PERICENTER": 241.6716, "MEAN_ANOMALY": 116.1695, "EPHEMERIS_TYPE": 0, "CLASSIFICATION_TYPE": "U", "NORAD_CAT_ID": 33908, "ELEMENT_SET_NO": 999, "REV_AT_EPOCH": 85384, "BSTAR": 0.0030396285, "MEAN_MOTION_DOT": 6.384e-05, "MEAN_MOTION_DDOT": 0}, "tle": {"line1": "1 33908U 93036DM  25340.40117402  .00006384  00000+0  30396-2 0  9990", "line2": "2 33908  73.8378 217.0126 0223709 241.6716 116.1695 14.07270417853840"}}, "geometry": {"type": "Point", "coordinates": [-126.6362918142508, 47.21546226636301]}}, {"type": "Feature", "properties": {"norad_id": 33911, "name": "COSMOS 2251 DEB", "group": "cosmos-2251-debris", "lat": -16.9546585847884, "lon": 167.10961120950964, "alt_km": 657.8758935723818, "timestamp": "2025-12-07T11:27:50.400036+00:00", "meta": {"OBJECT_NAME": "COSMOS 2251 DEB", "OBJECT_ID": "1993-036DQ", "EPOCH": "2025-12-06T14:38:05.532864", "MEAN_MOTION": 14.74605758, "ECCENTRICITY": 0.00144402, "INCLINATION": 74.0895, "RA_OF_ASC_NODE": 173.7872, "ARG_OF_PERICENTER": 118.2376, "MEAN_ANOMALY": 298.9978, "EPHEMERIS_TYPE": 0, "CLASSIFICATION_TYPE": "U", "NORAD_CAT_ID": 33911, "ELEMENT_SET_NO": 999, "REV_AT_EPOCH": 88554, "BSTAR": 0.0033379474, "MEAN_MOTION_DOT": 0.00022332, "MEAN_MOTION_DDOT": 0}, "tle": {"line1": "1 33911U 93036DQ  25340.60978626  .00022332  00000+0  33379-2 0  9994", "line2": "2 33911  74.0895 173.7872 0014440 118.2376 298.9978 14.74605758885547"}}, "geometry": {"type": "Point", "coordinates": [167.10961120950964, -16.9546585847884]}}, {"type": "Feature", "properties": {"norad_id": 33912, "name": "COSMOS 2251 DEB", "group": "cosmos-2251-debris", "lat": -54.62179915083593, "lon": 175.8593523074024, "alt_km": 718.770053032511, "timestamp": "2025-12-07T11:27:50.400046+00:00", "meta": {"OBJECT_NAME": "COSMOS 2251 DEB", "OBJECT_ID": "1993-036DR", "EPOCH": "2025-12-06T20:54:55.287936", "MEAN_MOTION": 14.51847649, "ECCENTRICITY": 0.00115443, "INCLINATION": 74.0334, "RA_OF_ASC_NODE": 200.7786, "ARG_OF_PERICENTER": 279.6101, "MEAN_ANOMALY": 95.3214, "EPHEMERIS_TYPE": 0, "CLASSIFICATION_TYPE": "U", "NORAD_CAT_ID": 33912, "ELEMENT_SET_NO": 999, "REV_AT_EPOCH": 88348, "BSTAR": 0.0012507545, "MEAN_MOTION_DOT": 5.017e-05, "MEAN_MOTION_DDOT": 0}, "tle": {"line1": "1 33912U 93036DR  25340.87147324  .00005017  00000+0  12508-2 0  9999", "line2": "2 33912  74.0334 200.7786 0011544 279.6101  95.3214 14.51847649883486"}}, "geometry": {"type": "Point", "coordinates": [175.8593523074024, -54.62179915083593]}}, {"type": "Feature", "properties": {"norad_id": 33913, "name": "COSMOS 2251 DEB", "group": "cosmos-2251-debris", "lat": 73.86171471838843, "lon": -68.15750505565276, "alt_km": 754.3477432346008, "timestamp": "2025-12-07T11:27:50.400056+00:00", "meta": {"OBJECT_NAME": "COSMOS 2251 DEB", "OBJECT_ID": "1993-036DS", "EPOCH": "2025-12-06T17:07:35.156640", "MEAN_MOTION": 14.48451665, "ECCENTRICITY": 0.00481422, "INCLINATION": 74.0335, "RA_OF_ASC_NODE": 194.9344, "ARG_OF_PERICENTER": 298.615, "MEAN_ANOMALY": 130.9109, "EPHEMERIS_TYPE": 0, "CLASSIFICATION_TYPE": "U", "NORAD_CAT_ID": 33913, "ELEMENT_SET_NO": 999, "REV_AT_EPOCH": 88370, "BSTAR": 0.00094614351, "MEAN_MOTION_DOT": 3.573e-05, "MEAN_MOTION_DDOT": 0}, "tle": {"line1": "1 33913U 93036DS  25340.71360135  .00003573  00000+0  94614-3 0  9994", "line2": "2 33913  74.0335 194.9344 0048142 298.6150 130.9109 14.48451665883700"}}, "geometry": {"type": "Point", "coordinates": [-68.15750505565276, 73.86171471838843]}}, {"type": "Feature", "properties": {"norad_id": 33914, "name": "COSMOS 2251 DEB", "group": "cosmos-2251-debris", "lat": 58.9517896920474, "lon": 52.04400593652404, "alt_km": 887.1632960518209, "timestamp": "2025-12-07T11:27:50.400067+00:00", "meta": {"OBJECT_NAME": "COSMOS 2251 DEB", "OBJECT_ID": "1993-036DT", "EPOCH": "2025-12-06T21:59:50.485056", "MEAN_MOTION": 13.71977214, "ECCENTRICITY": 0.0301666, "INCLINATION": 74.0915, "RA_OF_ASC_NODE": 24.6913, "ARG_OF_PERICENTER": 129.1373, "MEAN_ANOMALY": 46.6643, "EPHEMERIS_TYPE": 0, "CLASSIFICATION_TYPE": "U", "NORAD_CAT_ID": 33914, "ELEMENT_SET_NO": 999, "REV_AT_EPOCH": 84001, "BSTAR": 0.0008511797, "MEAN_MOTION_DOT": 1.049e-05, "MEAN_MOTION_DDOT": 0}, "tle": {"line1": "1 33914U 93036DT  25340.91655654  .00001049  00000+0  85118-3 0  9995", "line2": "2 33914  74.0915  24.6913 0301666 129.1373  46.6643 13.71977214840015"}}, "geometry": {"type": "Point", "coordinates": [52.04400593652404, 58.9517896920474]}}, {"type": "Feature", "properties": {"norad_id": 33915, "name": "COSMOS 2251 DEB", "group": "cosmos-2251-debris", "lat": 66.37051192222181, "lon": 84.58863928048201, "alt_km": 736.0923572553684, "timestamp": "2025-12-07T11:27:50.400077+00:00", "meta": {"OBJECT_NAME": "COSMOS 2251 DEB", "OBJECT_ID": "1993-036DU", "EPOCH": "2025-12-06T15:36:27.457056", "MEAN_MOTION": 14.35061142, "ECCENTRICITY": 0.01047608, "INCLINATION": 74.0446, "RA_OF_ASC_NODE": 45.2669, "ARG_OF_PERICENTER": 139.4209, "MEAN_ANOMALY": 341.4914, "EPHEMERIS_TYPE": 0, "CLASSIFICATION_TYPE": "U", "NORAD_CAT_ID": 33915, "ELEMENT_SET_NO": 999, "REV_AT_EPOCH": 87670, "BSTAR": 0.00084718101, "MEAN_MOTION_DOT": 2.545e-05, "MEAN_MOTION_DDOT": 0}, "tle": {"line1": "1 33915U 93036DU  25340.65031779  .00002545  00000+0  84718-3 0  9990", "line2": "2 33915  74.0446  45.2669 0104760 139.4209 341.4914 14.35061142876707"}}, "geometry": {"type": "Point", "coordinates": [84.58863928048201, 66.37051192222181]}}, {"type": "Feature", "properties": {"norad_id": 33916, "name": "COSMOS 2251 DEB", "group": "cosmos-2251-debris", "lat": 34.507340498081916, "lon": 60.570852457888336, "alt_km": 1240.682276735739, "timestamp": "2025-12-07T11:27:50.400087+00:00", "meta": {"OBJECT_NAME": "COSMOS 2251 DEB", "OBJECT_ID": "1993-036DV", "EPOCH": "2025-12-06T22:07:20.635968", "MEAN_MOTION": 13.68603153, "ECCENTRICITY": 0.03254603, "INCLINATION": 74.053, "RA_OF_ASC_NODE": 50.1479, "ARG_OF_PERICENTER": 223.5249, "MEAN_ANOMALY": 314.3723, "EPHEMERIS_TYPE": 0, "CLASSIFICATION_TYPE": "U", "NORAD_CAT_ID": 33916, "ELEMENT_SET_NO": 999, "REV_AT_EPOCH": 83811, "BSTAR": 0.00087472513, "MEAN_MOTION_DOT": 1.063e-05, "MEAN_MOTION_DDOT": 0}, "tle": {"line1": "1 33916U 93036DV  25340.92176662  .00001063  00000+0  87473-3 0  9997", "line2": "2 33916  74.0530  50.1479 0325460 223.5249 314.3723 13.68603153838116"}}, "geometry": {"type": "Point", "coordinates": [60.570852457888336, 34.507340498081916]}}]}